      2.10          N: GNSS NAV DATA                        RINEX VERSION / TYPE
fic2rin                                 07/08/2023 00:17:57 PGM / RUN BY / DATE
                                                            END OF HEADER
6  23  7  7  1 59 44.0  .580132473260D-03 -.318323145621D-11  .000000000000D+00
     .490000000000D+02  .111812500000D+03  .369408244479D-08  .145210098796D+01
     .586733222008D-05  .268777448218D-02  .615790486336D-05  .515370001793D+04
     .439184000000D+06  .137835741043D-06  .163325041790D+01  .819563865662D-07
     .989074139891D+00  .275250000000D+03 -.748923061617D+00 -.786354183380D-08
     .422160441820D-09  .100000000000D+01  .226900000000D+04  .000000000000D+00
     .240000000000D+01  .000000000000D+00  .372529029846D-08  .490000000000D+02
     .432000000000D+06  .400000000000D+01
22 23  7  7  2  0  0.0  .509009696543D-03  .557065504836D-11  .000000000000D+00
     .720000000000D+02 -.983125000000D+02  .435875298813D-08 -.299364821929D+01
    -.506080687046D-05  .143827741267D-01  .105593353510D-04  .515365670776D+04
     .439200000000D+06  .273808836937D-06 -.248226300490D+01 -.102445483208D-06
     .963036538749D+00  .173343750000D+03 -.179941825887D+01 -.768924885951D-08
     .113933317209D-09  .100000000000D+01  .226900000000D+04  .000000000000D+00
     .240000000000D+01  .630000000000D+02 -.838190317154D-08  .720000000000D+02
     .432000000000D+06  .400000000000D+01
15 23  7  7  1 59 44.0  .556455925107D-04  .352429196937D-11  .000000000000D+00
     .130000000000D+02 -.143531250000D+03  .508485466175D-08  .248140031187D+01
    -.742077827454D-05  .150680084480D-01  .997632741928D-05  .515375455475D+04
     .439184000000D+06  .134110450745D-06 -.270714664293D+01 -.199303030968D-06
     .933041431138D+00  .171437500000D+03  .121184140944D+01 -.806676458455D-08
    -.814319633967D-10  .100000000000D+01  .226900000000D+04  .000000000000D+00
     .240000000000D+01  .000000000000D+00 -.107102096081D-07  .130000000000D+02
     .432600000000D+06  .400000000000D+01
4  23  7  7  2 29 36.0  .885836780071D-04  .106865627458D-10  .000000000000D+00
     .183000000000D+03 -.866875000000D+02  .438339687179D-08 -.300305317333D+01
    -.442378222942D-05  .243588606827D-02  .106357038021D-04  .515365746307D+04
     .440976000000D+06 -.540167093277D-07 -.253078109701D+01 -.372529029846D-08
     .963232904780D+00  .179968750000D+03 -.299455019460D+01 -.785782731005D-08
     .982183769039D-10  .100000000000D+01  .226900000000D+04  .000000000000D+00
     .240000000000D+01  .000000000000D+00 -.465661287308D-08  .439000000000D+03
     .433800000000D+06  .400000000000D+01
20 23  7  7  1 59 44.0  .424051191658D-03 -.204636307899D-11  .000000000000D+00
     .000000000000D+00 -.310000000000D+02  .509592655151D-08  .210700308728D+01
    -.161305069923D-05  .404179212637D-02  .108778476715D-05  .515357633972D+04
     .439184000000D+06 -.126659870148D-06  .250187372604D+01  .316649675369D-07
     .949197324941D+00  .347562500000D+03 -.287839532127D+01 -.874643575273D-08
     .832177520677D-10  .100000000000D+01  .226900000000D+04  .000000000000D+00
     .240000000000D+01  .000000000000D+00 -.838190317154D-08  .000000000000D+00
     .436200000000D+06  .400000000000D+01
7  23  7  7  1 59 44.0  .132311135530D-03 -.106865627458D-10  .000000000000D+00
     .230000000000D+02  .350937500000D+02  .516092925913D-08  .606386536605D+00
     .210851430893D-05  .174755910411D-01  .898167490959D-05  .515373551559D+04
     .439184000000D+06 -.216066837311D-06 -.151588207450D+01  .150874257088D-06
     .949914412274D+00  .204187500000D+03 -.218379759232D+01 -.852535511526D-08
     .268582616115D-09  .100000000000D+01  .226900000000D+04  .000000000000D+00
     .240000000000D+01  .000000000000D+00 -.111758708954D-07  .230000000000D+02
     .436350000000D+06  .400000000000D+01
10 23  7  7  1 59 44.0 -.441428273916D-04 -.159161572810D-11  .000000000000D+00
     .290000000000D+02 -.485625000000D+02  .444375652887D-08 -.823996038308D+00
    -.233389437199D-05  .858081190381D-02  .253692269325D-05  .515368631172D+04
     .439184000000D+06  .113621354103D-06  .266947437092D+01  .216066837311D-06
     .979493322617D+00  .337656250000D+03 -.243780470357D+01 -.837142013182D-08
     .364300888880D-10  .100000000000D+01  .226900000000D+04  .000000000000D+00
     .240000000000D+01  .000000000000D+00  .232830643654D-08  .290000000000D+02
     .436500000000D+06  .400000000000D+01
10 23  7  7  3 59 44.0 -.441535376012D-04 -.159161572810D-11  .000000000000D+00
     .300000000000D+02 -.476562500000D+02  .438589697593D-08  .226207567185D+00
    -.249966979027D-05  .858120538760D-02  .260770320892D-05  .515368717766D+04
     .446384000000D+06 -.745058059692D-08  .266941364372D+01  .191852450371D-06
     .979493294822D+00  .341468750000D+03 -.243783623531D+01 -.844320883640D-08
     .360729311538D-10  .100000000000D+01  .226900000000D+04  .000000000000D+00
     .240000000000D+01  .000000000000D+00  .232830643654D-08  .300000000000D+02
     .439200000000D+06  .400000000000D+01
7  23  7  7  3 59 44.0  .132234301418D-03 -.106865627458D-10  .000000000000D+00
     .240000000000D+02  .204062500000D+02  .505306762341D-08  .165641009053D+01
     .996515154839D-06  .174765270203D-01  .952929258347D-05  .515373998070D+04
     .446384000000D+06 -.489875674248D-06 -.151594427632D+01 -.160187482834D-06
     .949917474161D+00  .196875000000D+03 -.218367416593D+01 -.828820237975D-08
     .460019161645D-09  .100000000000D+01  .226900000000D+04  .000000000000D+00
     .240000000000D+01  .000000000000D+00 -.111758708954D-07  .240000000000D+02
     .439200000000D+06  .400000000000D+01
20 23  7  7  3 59 44.0  .424036290497D-03 -.204636307899D-11  .000000000000D+00
     .100000000000D+01 -.315000000000D+02  .494163441034D-08 -.312590727667D+01
    -.146776437759D-05  .404240470380D-02  .156089663506D-05  .515357521820D+04
     .446384000000D+06  .186264514923D-08  .250181109998D+01 -.102445483208D-06
     .949198875635D+00  .342500000000D+03 -.287842601036D+01 -.856678541243D-08
     .123219418298D-09  .100000000000D+01  .226900000000D+04  .000000000000D+00
     .240000000000D+01  .000000000000D+00 -.838190317154D-08  .100000000000D+01
     .439200000000D+06  .400000000000D+01
15 23  7  7  3 59 44.0  .556707382202D-04  .352429196937D-11  .000000000000D+00
     .140000000000D+02 -.129218750000D+03  .494020577940D-08 -.275167496391D+01
    -.699050724506D-05  .150658421917D-01  .100713223219D-04  .515375855637D+04
     .446384000000D+06  .284984707832D-06 -.270720544053D+01 -.521540641785D-07
     .933041012743D+00  .163062500000D+03  .121186552711D+01 -.810676625078D-08
     .435732435719D-10  .100000000000D+01  .226900000000D+04  .000000000000D+00
     .240000000000D+01  .000000000000D+00 -.107102096081D-07  .140000000000D+02
     .439200000000D+06  .400000000000D+01
3  23  7  7  4  0  0.0 -.242699868977D-03  .152340362547D-10  .000000000000D+00
     .210000000000D+02 -.468125000000D+02  .429232164957D-08  .113880322160D+01
    -.259838998318D-05  .500458409078D-02  .252388417721D-05  .515364026070D+04
     .446400000000D+06 -.316649675369D-07  .267204977090D+01  .484287738800D-07
     .979768591135D+00  .338062500000D+03  .105890215004D+01 -.832891836145D-08
     .571452374714D-11  .100000000000D+01  .226900000000D+04  .000000000000D+00
     .240000000000D+01  .000000000000D+00  .186264514923D-08  .210000000000D+02
     .439200000000D+06  .400000000000D+01
2  23  7  7  4  0  0.0 -.578684266657D-03  .375166564481D-11  .000000000000D+00
     .630000000000D+02  .100375000000D+03  .419481758813D-08 -.130202633721D+01
     .554509460926D-05  .159202519571D-01  .757724046707D-05  .515355679512D+04
     .446400000000D+06 -.225380063057D-06  .154198569275D+01  .270083546638D-06
     .967313265646D+00  .243000000000D+03 -.137321613098D+01 -.822355682986D-08
     .332513850537D-09  .100000000000D+01  .226900000000D+04  .000000000000D+00
     .240000000000D+01  .000000000000D+00 -.176951289177D-07  .630000000000D+02
     .439200000000D+06  .400000000000D+01
1  23  7  7  4  0  0.0  .174179673195D-03 -.204636307899D-11  .000000000000D+00
     .620000000000D+02  .934375000000D+02  .365979530231D-08  .231332717518D+01
     .472366809845D-05  .129397390410D-01  .671669840813D-05  .515364262581D+04
     .446400000000D+06  .186264514923D-08  .164152800192D+01 -.264495611191D-06
     .989877467707D+00  .263593750000D+03  .983726295097D+00 -.773246494535D-08
     .336085427879D-09  .100000000000D+01  .226900000000D+04  .000000000000D+00
     .240000000000D+01  .000000000000D+00  .465661287308D-08  .620000000000D+02
     .439200000000D+06  .400000000000D+01
5  23  7  7  4  0  0.0 -.133924651891D-03 -.147792889038D-11  .000000000000D+00
     .740000000000D+02 -.498750000000D+02  .459590572364D-08 -.138912932521D+01
    -.224635004997D-05  .604308501352D-02  .185146927834D-05  .515369342613D+04
     .446400000000D+06  .484287738800D-07  .262495154466D+01  .335276126862D-07
     .966762765184D+00  .341312500000D+03  .117781112612D+01 -.845535219936D-08
     .639312344211D-10  .100000000000D+01  .226900000000D+04  .000000000000D+00
     .240000000000D+01  .000000000000D+00 -.111758708954D-07  .740000000000D+02
     .439200000000D+06  .400000000000D+01
24 23  7  7  4  0  0.0 -.249567441642D-03 -.125055521494D-10  .000000000000D+00
     .110000000000D+02  .256562500000D+02  .525486174323D-08  .263499009291D+01
     .117719173431D-05  .140121964505D-01  .103618949652D-04  .515364509010D+04
     .446400000000D+06 -.204890966415D-07 -.160736445554D+01 -.163912773132D-06
     .933545596596D+00  .162843750000D+03  .900222837506D+00 -.806069290307D-08
     .564666377764D-09  .100000000000D+01  .226900000000D+04  .000000000000D+00
     .240000000000D+01  .000000000000D+00  .279396772385D-08  .110000000000D+02
     .439200000000D+06  .400000000000D+01
